{"type": "FeatureCollection", "features": [ {"type": "Feature", "properties": {"norad_id": 33825, "name": "COSMOS 2251 DEB", "group": "cosmos-2251-debris", "lat": 73.04494476509565, "lon": 113.22208035684852, "alt_km": 690.4715414201746, "timestamp": "2025-12-25T03:55:56.759975+00:00", "meta": {"OBJECT_NAME": "COSMOS 2251 DEB", "OBJECT_ID": "1993-036BS", "EPOCH": "2025-12-24T18:30:22.551840", "MEAN_MOTION": 14.69878685, "ECCENTRICITY": 0.0085091, "INCLINATION": 73.985, "RA_OF_ASC_NODE": 4.3924, "ARG_OF_PERICENTER": 328.6603, "MEAN_ANOMALY": 208.7246, "EPHEMERIS_TYPE": 0, "CLASSIFICATION_TYPE": "U", "NORAD_CAT_ID": 33825, "ELEMENT_SET_NO": 999, "REV_AT_EPOCH": 89056, "BSTAR": 0.0010613, "MEAN_MOTION_DOT": 6.683e-05, "MEAN_MOTION_DDOT": 0}, "tle": {"line1": "1 33825U 93036BS  25358.77109435  .00006683  00000+0  10613-2 0  9996", "line2": "2 33825  73.9850   4.3924 0085091 328.6603 208.7246 14.69878685890567"}}, "geometry": {"type": "Point", "coordinates": [113.22208035684852, 73.04494476509565]}}, {"type": "Feature", "properties": {"norad_id": 33826, "name": "COSMOS 2251 DEB", "group": "cosmos-2251-debris", "lat": -69.52183403670959, "lon": -103.56610367782089, "alt_km": 784.4236993300419, "timestamp": "2025-12-25T03:55:56.759986+00:00", "meta": {"OBJECT_NAME": "COSMOS 2251 DEB", "OBJECT_ID": "1993-036BT", "EPOCH": "2025-12-24T03:51:44.169696", "MEAN_MOTION": 14.51770074, "ECCENTRICITY": 0.00825161, "INCLINATION": 74.0639, "RA_OF_ASC_NODE": 28.4031, "ARG_OF_PERICENTER": 68.902, "MEAN_ANOMALY": 348.7038, "EPHEMERIS_TYPE": 0, "CLASSIFICATION_TYPE": "U", "NORAD_CAT_ID": 33826, "ELEMENT_SET_NO": 999, "REV_AT_EPOCH": 87935, "BSTAR": 0.00045758749, "MEAN_MOTION_DOT": 1.894e-05, "MEAN_MOTION_DDOT": 0}, "tle": {"line1": "1 33826U 93036BT  25358.16092789  .00001894  00000+0  45759-3 0  9992", "line2": "2 33826  74.0639  28.4031 0082516  68.9020 348.7038 14.51770074879359"}}, "geometry": {"type": "Point", "coordinates": [-103.56610367782089, -69.52183403670959]}}, {"type": "Feature", "properties": {"norad_id": 33828, "name": "COSMOS 2251 DEB", "group": "cosmos-2251-debris", "lat": -2.822006485577946, "lon": 35.79496576383803, "alt_km": 751.8179009372852, "timestamp": "2025-12-25T03:55:56.759998+00:00", "meta": {"OBJECT_NAME": "COSMOS 2251 DEB", "OBJECT_ID": "1993-036BV", "EPOCH": "2025-12-24T20:29:36.190176", "MEAN_MOTION": 14.4436584, "ECCENTRICITY": 0.002952, "INCLINATION": 74.045, "RA_OF_ASC_NODE": 215.5632, "ARG_OF_PERICENTER": 286.6301, "MEAN_ANOMALY": 85.466, "EPHEMERIS_TYPE": 0, "CLASSIFICATION_TYPE": "U", "NORAD_CAT_ID": 33828, "ELEMENT_SET_NO": 999, "REV_AT_EPOCH": 88488, "BSTAR": 0.00036134, "MEAN_MOTION_DOT": 1.224e-05, "MEAN_MOTION_DDOT": 0}, "tle": {"line1": "1 33828U 93036BV  25358.85389109  .00001224  00000+0  36134-3 0  9999", "line2": "2 33828  74.0450 215.5632 0029520 286.6301  85.4660 14.44365840884888"}}, "geometry": {"type": "Point", "coordinates": [35.79496576383803, -2.822006485577946]}}, {"type": "Feature", "properties": {"norad_id": 33830, "name": "COSMOS 2251 DEB", "group": "cosmos-2251-debris", "lat": 68.78102868213438, "lon": -106.47125608783755, "alt_km": 642.9926660248129, "timestamp": "2025-12-25T03:55:56.760008+00:00", "meta": {"OBJECT_NAME": "COSMOS 2251 DEB", "OBJECT_ID": "1993-036BX", "EPOCH": "2025-12-24T14:51:03.932064", "MEAN_MOTION": 14.77018165, "ECCENTRICITY": 0.0042754, "INCLINATION": 74.0307, "RA_OF_ASC_NODE": 207.0741, "ARG_OF_PERICENTER": 324.7475, "MEAN_ANOMALY": 93.675, "EPHEMERIS_TYPE": 0, "CLASSIFICATION_TYPE": "U", "NORAD_CAT_ID": 33830, "ELEMENT_SET_NO": 999, "REV_AT_EPOCH": 89647, "BSTAR": 0.00072986, "MEAN_MOTION_DOT": 5.194e-05, "MEAN_MOTION_DDOT": 0}, "tle": {"line1": "1 33830U 93036BX  25358.61879551  .00005194  00000+0  72986-3 0  9996", "line2": "2 33830  74.0307 207.0741 0042754 324.7475  93.6750 14.77018165896479"}}, "geometry": {"type": "Point", "coordinates": [-106.47125608783755, 68.78102868213438]}}, {"type": "Feature", "properties": {"norad_id": 33832, "name": "COSMOS 2251 DEB", "group": "cosmos-2251-debris", "lat": 56.911096201326174, "lon": -19.761332883028917, "alt_km": 686.4324470679494, "timestamp": "2025-12-25T03:55:56.760018+00:00", "meta": {"OBJECT_NAME": "COSMOS 2251 DEB", "OBJECT_ID": "1993-036BZ", "EPOCH": "2025-12-24T14:31:38.804736", "MEAN_MOTION": 14.60781688, "ECCENTRICITY": 0.002404, "INCLINATION": 74.0527, "RA_OF_ASC_NODE": 187.3326, "ARG_OF_PERICENTER": 216.1209, "MEAN_ANOMALY": 207.4175, "EPHEMERIS_TYPE": 0, "CLASSIFICATION_TYPE": "U", "NORAD_CAT_ID": 33832, "ELEMENT_SET_NO": 999, "REV_AT_EPOCH": 88598, "BSTAR": 0.0013803, "MEAN_MOTION_DOT": 6.742e-05, "MEAN_MOTION_DDOT": 0}, "tle": {"line1": "1 33832U 93036BZ  25358.60531024  .00006742  00000+0  13803-2 0  9999", "line2": "2 33832  74.0527 187.3326 0024040 216.1209 207.4175 14.60781688885980"}}, "geometry": {"type": "Point", "coordinates": [-19.761332883028917, 56.911096201326174]}}, {"type": "Feature", "properties": {"norad_id": 33835, "name": "COSMOS 2251 DEB", "group": "cosmos-2251-debris", "lat": 24.269989357397517, "lon": 84.75023445856057, "alt_km": 692.1859382406792, "timestamp": "2025-12-25T03:55:56.760029+00:00", "meta": {"OBJECT_NAME": "COSMOS 2251 DEB", "OBJECT_ID": "1993-036CC", "EPOCH": "2025-12-24T15:25:23.467872", "MEAN_MOTION": 14.62359412, "ECCENTRICITY": 0.0053783, "INCLINATION": 74.0573, "RA_OF_ASC_NODE": 78.3416, "ARG_OF_PERICENTER": 128.3695, "MEAN_ANOMALY": 34.8196, "EPHEMERIS_TYPE": 0, "CLASSIFICATION_TYPE": "U", "NORAD_CAT_ID": 33835, "ELEMENT_SET_NO": 999, "REV_AT_EPOCH": 88963, "BSTAR": 0.00090702, "MEAN_MOTION_DOT": 4.652e-05, "MEAN_MOTION_DDOT": 0}, "tle": {"line1": "1 33835U 93036CC  25358.64263273  .00004652  00000+0  90702-3 0  9996", "line2": "2 33835  74.0573  78.3416 0053783 128.3695  34.8196 14.62359412889631"}}, "geometry": {"type": "Point", "coordinates": [84.75023445856057, 24.269989357397517]}}, {"type": "Feature", "properties": {"norad_id": 33836, "name": "COSMOS 2251 DEB", "group": "cosmos-2251-debris", "lat": 65.97561192258372, "lon": 14.34805324665679, "alt_km": 608.5929500649172, "timestamp": "2025-12-25T03:55:56.760039+00:00", "meta": {"OBJECT_NAME": "COSMOS 2251 DEB", "OBJECT_ID": "1993-036CD", "EPOCH": "2025-12-24T16:13:46.720416", "MEAN_MOTION": 14.79813412, "ECCENTRICITY": 0.0022862, "INCLINATION": 73.9959, "RA_OF_ASC_NODE": 235.3942, "ARG_OF_PERICENTER": 84.0042, "MEAN_ANOMALY": 307.3858, "EPHEMERIS_TYPE": 0, "CLASSIFICATION_TYPE": "U", "NORAD_CAT_ID": 33836, "ELEMENT_SET_NO": 999, "REV_AT_EPOCH": 64265, "BSTAR": 0.001132, "MEAN_MOTION_DOT": 8.54e-05, "MEAN_MOTION_DDOT": 0}, "tle": {"line1": "1 33836U 93036CD  25358.67623519  .00008540  00000+0  11320-2 0  9991", "line2": "2 33836  73.9959 235.3942 0022862  84.0042 307.3858 14.79813412642650"}}, "geometry": {"type": "Point", "coordinates": [14.34805324665679, 65.97561192258372]}}, {"type": "Feature", "properties": {"norad_id": 33837, "name": "COSMOS 2251 DEB", "group": "cosmos-2251-debris", "lat": -47.96196823562328, "lon": -129.25063246648958, "alt_km": 705.9931256439895, "timestamp": "2025-12-25T03:55:56.760050+00:00", "meta": {"OBJECT_NAME": "COSMOS 2251 DEB", "OBJECT_ID": "1993-036CE", "EPOCH": "2025-12-23T11:09:00.922464", "MEAN_MOTION": 14.50722608, "ECCENTRICITY": 0.00358961, "INCLINATION": 74.0124, "RA_OF_ASC_NODE": 35.4061, "ARG_OF_PERICENTER": 255.4273, "MEAN_ANOMALY": 104.2905, "EPHEMERIS_TYPE": 0, "CLASSIFICATION_TYPE": "U", "NORAD_CAT_ID": 33837, "ELEMENT_SET_NO": 999, "REV_AT_EPOCH": 88951, "BSTAR": 0.00022621397, "MEAN_MOTION_DOT": 8.68e-06, "MEAN_MOTION_DDOT": 0}, "tle": {"line1": "1 33837U 93036CE  25357.46459401  .00000868  00000+0  22621-3 0  9997", "line2": "2 33837  74.0124  35.4061 0035896 255.4273 104.2905 14.50722608889519"}}, "geometry": {"type": "Point", "coordinates": [-129.25063246648958, -47.96196823562328]}}, {"type": "Feature", "properties": {"norad_id": 33838, "name": "COSMOS 2251 DEB", "group": "cosmos-2251-debris", "lat": -0.9061289925073301, "lon": 126.28704599489654, "alt_km": 741.0424231239667, "timestamp": "2025-12-25T03:55:56.760060+00:00", "meta": {"OBJECT_NAME": "COSMOS 2251 DEB", "OBJECT_ID": "1993-036CF", "EPOCH": "2025-12-24T18:32:42.983808", "MEAN_MOTION": 14.48398949, "ECCENTRICITY": 0.0027474, "INCLINATION": 74.0366, "RA_OF_ASC_NODE": 127.2787, "ARG_OF_PERICENTER": 247.5321, "MEAN_ANOMALY": 232.7262, "EPHEMERIS_TYPE": 0, "CLASSIFICATION_TYPE": "U", "NORAD_CAT_ID": 33838, "ELEMENT_SET_NO": 999, "REV_AT_EPOCH": 88743, "BSTAR": 0.00041849, "MEAN_MOTION_DOT": 1.547e-05, "MEAN_MOTION_DDOT": 0}, "tle": {"line1": "1 33838U 93036CF  25358.77271972  .00001547  00000+0  41849-3 0  9996", "line2": "2 33838  74.0366 127.2787 0027474 247.5321 232.7262 14.48398949887438"}}, "geometry": {"type": "Point", "coordinates": [126.28704599489654, -0.9061289925073301]}}, {"type": "Feature", "properties": {"norad_id": 33839, "name": "COSMOS 2251 DEB", "group": "cosmos-2251-debris", "lat": -69.80957035831321, "lon": 131.49743854274146, "alt_km": 626.3007655654674, "timestamp": "2025-12-25T03:55:56.760071+00:00", "meta": {"OBJECT_NAME": "COSMOS 2251 DEB", "OBJECT_ID": "1993-036CG", "EPOCH": "2025-12-23T19:33:34.360128", "MEAN_MOTION": 14.64445826, "ECCENTRICITY": 0.00853576, "INCLINATION": 74.0374, "RA_OF_ASC_NODE": 185.1983, "ARG_OF_PERICENTER": 294.7494, "MEAN_ANOMALY": 79.6279, "EPHEMERIS_TYPE": 0, "CLASSIFICATION_TYPE": "U", "NORAD_CAT_ID": 33839, "ELEMENT_SET_NO": 999, "REV_AT_EPOCH": 89742, "BSTAR": 0.00019226296, "MEAN_MOTION_DOT": 1.039e-05, "MEAN_MOTION_DDOT": 0}, "tle": {"line1": "1 33839U 93036CG  25357.81498102  .00001039  00000+0  19226-3 0  9997", "line2": "2 33839  74.0374 185.1983 0085357 294.7494  79.6279 14.64445826897429"}}, "geometry": {"type": "Point", "coordinates": [131.49743854274146, -69.80957035831321]}}]}